STARLINK-3828           
1 52469U 22049U   26060.31139888  .00000454  00000+0  46584-4 0  9991
2 52469  53.2167  96.7386 0001405  89.8429 270.2724 15.08840318210983
STARLINK-3859           
1 52470U 22049V   26060.49539548  .00000732  00000+0  64044-4 0  9999
2 52470  53.2161  95.9035 0000848  90.9728 269.1361 15.08843161211014
STARLINK-3862           
1 52471U 22049W   26060.50739578 -.00001734  00000+0 -90901-4 0  9993
2 52471  53.2165  95.8614 0001519  93.0853 267.0313 15.08831605211014
STARLINK-3881           
1 52472U 22049X   26060.49171714  .00001787  00000+0  13034-3 0  9991
2 52472  53.2166  95.9207 0001304  91.6149 268.4992 15.08839706211017
STARLINK-3879           
1 52473U 22049Y   26060.36660686 -.00001745  00000+0 -91629-4 0  9992
2 52473  53.2158  96.4811 0001291  80.9842 279.1296 15.08828327210991
STARLINK-3855           
1 52474U 22049Z   26060.50003471  .01255026  00000+0  67409-2 0  9991
2 52474  53.2164  77.9241 0001321  91.0974 306.3418 15.77219188  5809
STARLINK-3882           
1 52475U 22049AA  26060.38134291  .00000134  00000+0  26483-4 0  9999
2 52475  53.2157  96.6400 0001219  92.9892 267.1240 15.08839301210996
STARLINK-3835           
1 52476U 22049AB  26060.33170990 -.00000119  00000+0  10599-4 0  9996
2 52476  53.2178  86.8815 0001424  91.9418 268.1737 15.08834923212362
STARLINK-3860           
1 52477U 22049AC  26060.44848506 -.00000938  00000+0 -40835-4 0  9990
2 52477  53.2181  86.1186 0001348  97.5031 262.6114 15.08839604212380
STARLINK-3825           
1 52478U 22049AD  26060.48435758 -.00000183  00000+0  66040-5 0  9994
2 52478  53.2166  95.9556 0001248  89.5202 270.5933 15.08842722212251
STARLINK-3878           
1 52479U 22049AE  26060.36751685  .00000239  00000+0  33131-4 0  9997
2 52479  53.2165  86.4818 0001293  90.5958 269.5182 15.08838783212376
STARLINK-3839           
1 52480U 22049AF  26060.48065057  .00004300  00000+0  28787-3 0  9996
2 52480  53.2164  95.9729 0001360  81.4370 278.6776 15.08868708211015
STARLINK-3813           
1 52482U 22049AH  26060.49263433  .00000991  00000+0  80335-4 0  9997
2 52482  53.2164  85.9187 0001339  92.3444 267.7701 15.08841700211158
STARLINK-3875           
1 52483U 22049AJ  26060.30496015  .00000104  00000+0  24627-4 0  9990
2 52483  53.2183  86.7633 0001483  95.7019 264.4143 15.08837655212362
STARLINK-3887           
1 52484U 22049AK  26060.41076273  .00000853  00000+0  71672-4 0  9996
2 52484  53.2163  96.2872 0001044 100.7985 259.3124 15.08830568211002
STARLINK-3913           
1 52485U 22049AL  26060.36383875  .00000171  00000+0  28805-4 0  9993
2 52485  53.2160  86.4973 0001287  88.5451 271.5688 15.08836302211130
STARLINK-3918           
1 52486U 22049AM  26060.33715903  .00000469  00000+0  47564-4 0  9995
2 52486  53.2164  96.6171 0001258  85.5692 274.5444 15.08833736210994
STARLINK-3902           
1 52487U 22049AN  26060.44113522 -.00000047  00000+0  15148-4 0  9993
2 52487  53.2175  86.2573 0001360  92.8320 267.2828 15.08835902212388
STARLINK-3892           
1 52488U 22049AP  26060.33348007 -.00000129  00000+0  99995-5 0  9994
2 52488  53.2163  96.6354 0001281  86.3852 273.7287 15.08837320210990
STARLINK-3923           
1 52489U 22049AQ  26060.40708174 -.00000333  00000+0 -28572-5 0  9999
2 52489  53.2158  96.3053 0001076  55.6358 304.4736 15.08838445211003
STARLINK-3914           
1 52490U 22049AR  26060.34911564  .00000657  00000+0  59373-4 0  9992
2 52490  53.2169  86.5601 0001288  93.1273 266.9866 15.08840339211130
STARLINK-3908           
1 52491U 22049AS  26060.48895392  .00000224  00000+0  32157-4 0  9999
2 52491  53.2168  85.9355 0001332  90.0324 270.0821 15.08841134211155
STARLINK-3916           
1 52492U 22049AT  26060.47424280  .00001854  00000+0  13455-3 0  9992
2 52492  53.2161  85.9993 0001423  88.3720 271.7435 15.08841482211153
STARLINK-3883           
1 52493U 22049AU  26060.35279405  .00001328  00000+0  10155-3 0  9997
2 52493  53.2166  86.5456 0001325  86.6124 273.5019 15.08836446211130
STARLINK-3857           
1 52494U 22049AV  26060.33071766  .00000623  00000+0  57215-4 0  9992
2 52494  53.2167  86.6441 0001356  86.2550 273.8597 15.08842718211133
STARLINK-3871           
1 52496U 22049AX  26060.43241323  .00015711  00000+0  10048-2 0  9998
2 52496  53.2173  81.1895 0001202  88.8877 271.2252 15.08774614211213
STARLINK-3884           
1 52497U 22049AY  26060.33807334  .00000537  00000+0  51799-4 0  9998
2 52497  53.2166  86.6105 0001316  93.3140 266.8003 15.08845861211138
STARLINK-3925           
1 52498U 22049AZ  26060.31323933 -.00000443  00000+0 -97617-5 0  9993
2 52498  53.2161  76.7222 0001155  91.1887 268.9237 15.08847468211260
STARLINK-3894           
1 52499U 22049BA  26060.33439982 -.00000720  00000+0 -27157-4 0  9997
2 52499  53.2162  86.6273 0001415  90.3585 269.7570 15.08833740211136
STARLINK-3866           
1 52500U 22049BB  26060.30955528  .00000811  00000+0  69004-4 0  9992
2 52500  53.2170  76.7388 0001409  84.8080 275.3072 15.08844315211260
