OBJECT_NAME,OBJECT_ID,EPOCH,MEAN_MOTION,ECCENTRICITY,INCLINATION,RA_OF_ASC_NODE,ARG_OF_PERICENTER,MEAN_ANOMALY,EPHEMERIS_TYPE,CLASSIFICATION_TYPE,NORAD_CAT_ID,ELEMENT_SET_NO,REV_AT_EPOCH,BSTAR,MEAN_MOTION_DOT,MEAN_MOTION_DDOT
STARLINK-3828,2022-049U,2026-03-01T07:28:24.863232,15.08840318,.0001405,53.2167,96.7386,89.8429,270.2724,0,U,52469,999,21098,.46584E-4,.454E-5,0
STARLINK-3859,2022-049V,2026-03-01T11:53:22.169472,15.08843161,.0000848,53.2161,95.9035,90.9728,269.1361,0,U,52470,999,21101,.64044E-4,.732E-5,0
STARLINK-3862,2022-049W,2026-03-01T12:10:38.995392,15.08831605,.0001519,53.2165,95.8614,93.0853,267.0313,0,U,52471,999,21101,-.90901E-4,-.1734E-4,0
STARLINK-3881,2022-049X,2026-03-01T11:48:04.360896,15.08839706,.0001304,53.2166,95.9207,91.6149,268.4992,0,U,52472,999,21101,.13034E-3,.1787E-4,0
STARLINK-3879,2022-049Y,2026-03-01T08:47:54.832704,15.08828327,.0001291,53.2158,96.4811,80.9842,279.1296,0,U,52473,999,21099,-.91629E-4,-.1745E-4,0
STARLINK-3855,2022-049Z,2026-03-01T12:00:02.998944,15.77219188,.0001321,53.2164,77.9241,91.0974,306.3418,0,U,52474,999,580,.67409E-2,.1255026E-1,0
STARLINK-3882,2022-049AA,2026-03-01T09:09:08.027424,15.08839301,.0001219,53.2157,96.6400,92.9892,267.1240,0,U,52475,999,21099,.26483E-4,.134E-5,0
STARLINK-3835,2022-049AB,2026-03-01T07:57:39.735360,15.08834923,.0001424,53.2178,86.8815,91.9418,268.1737,0,U,52476,999,21236,.10599E-4,-.119E-5,0
STARLINK-3860,2022-049AC,2026-03-01T10:45:49.109184,15.08839604,.0001348,53.2181,86.1186,97.5031,262.6114,0,U,52477,999,21238,-.40835E-4,-.938E-5,0
STARLINK-3825,2022-049AD,2026-03-01T11:37:28.494912,15.08842722,.0001248,53.2166,95.9556,89.5202,270.5933,0,U,52478,999,21225,.6604E-5,-.183E-5,0
STARLINK-3878,2022-049AE,2026-03-01T08:49:13.455840,15.08838783,.0001293,53.2165,86.4818,90.5958,269.5182,0,U,52479,999,21237,.33131E-4,.239E-5,0
STARLINK-3839,2022-049AF,2026-03-01T11:32:08.209248,15.08868708,.000136,53.2164,95.9729,81.4370,278.6776,0,U,52480,999,21101,.28787E-3,.43E-4,0
STARLINK-3813,2022-049AH,2026-03-01T11:49:23.606112,15.08841700,.0001339,53.2164,85.9187,92.3444,267.7701,0,U,52482,999,21115,.80335E-4,.991E-5,0
STARLINK-3875,2022-049AJ,2026-03-01T07:19:08.556960,15.08837655,.0001483,53.2183,86.7633,95.7019,264.4143,0,U,52483,999,21236,.24627E-4,.104E-5,0
STARLINK-3887,2022-049AK,2026-03-01T09:51:29.899872,15.08830568,.0001044,53.2163,96.2872,100.7985,259.3124,0,U,52484,999,21100,.71672E-4,.853E-5,0
STARLINK-3913,2022-049AL,2026-03-01T08:43:55.668000,15.08836302,.0001287,53.2160,86.4973,88.5451,271.5688,0,U,52485,999,21113,.28805E-4,.171E-5,0
STARLINK-3918,2022-049AM,2026-03-01T08:05:30.540192,15.08833736,.0001258,53.2164,96.6171,85.5692,274.5444,0,U,52486,999,21099,.47564E-4,.469E-5,0
STARLINK-3902,2022-049AN,2026-03-01T10:35:14.083008,15.08835902,.000136,53.2175,86.2573,92.8320,267.2828,0,U,52487,999,21238,.15148E-4,-.47E-6,0
STARLINK-3892,2022-049AP,2026-03-01T08:00:12.678048,15.08837320,.0001281,53.2163,96.6354,86.3852,273.7287,0,U,52488,999,21099,.99995E-5,-.129E-5,0
STARLINK-3923,2022-049AQ,2026-03-01T09:46:11.862336,15.08838445,.0001076,53.2158,96.3053,55.6358,304.4736,0,U,52489,999,21100,-.28572E-5,-.333E-5,0
STARLINK-3914,2022-049AR,2026-03-01T08:22:43.591296,15.08840339,.0001288,53.2169,86.5601,93.1273,266.9866,0,U,52490,999,21113,.59373E-4,.657E-5,0
STARLINK-3908,2022-049AS,2026-03-01T11:44:05.618688,15.08841134,.0001332,53.2168,85.9355,90.0324,270.0821,0,U,52491,999,21115,.32157E-4,.224E-5,0
STARLINK-3916,2022-049AT,2026-03-01T11:22:54.577920,15.08841482,.0001423,53.2161,85.9993,88.3720,271.7435,0,U,52492,999,21115,.13455E-3,.1854E-4,0
STARLINK-3883,2022-049AU,2026-03-01T08:28:01.405920,15.08836446,.0001325,53.2166,86.5456,86.6124,273.5019,0,U,52493,999,21113,.10155E-3,.1328E-4,0
STARLINK-3857,2022-049AV,2026-03-01T07:56:14.005824,15.08842718,.0001356,53.2167,86.6441,86.2550,273.8597,0,U,52494,999,21113,.57215E-4,.623E-5,0
STARLINK-3871,2022-049AX,2026-03-01T10:22:40.503072,15.08774614,.0001202,53.2173,81.1895,88.8877,271.2252,0,U,52496,999,21121,.10048E-2,.15711E-3,0
STARLINK-3884,2022-049AY,2026-03-01T08:06:49.536576,15.08845861,.0001316,53.2166,86.6105,93.3140,266.8003,0,U,52497,999,21113,.51799E-4,.537E-5,0
STARLINK-3925,2022-049AZ,2026-03-01T07:31:03.878112,15.08847468,.0001155,53.2161,76.7222,91.1887,268.9237,0,U,52498,999,21126,-.97617E-5,-.443E-5,0
STARLINK-3894,2022-049BA,2026-03-01T08:01:32.144448,15.08833740,.0001415,53.2162,86.6273,90.3585,269.7570,0,U,52499,999,21113,-.27157E-4,-.72E-5,0
STARLINK-3866,2022-049BB,2026-03-01T07:25:45.576192,15.08844315,.0001409,53.2170,76.7388,84.8080,275.3072,0,U,52500,999,21126,.69004E-4,.811E-5,0
